start=new Date('2022-04-21T00:00:00.000Z').valueOf();
sats=[{"EPHEMERIS_TYPE":"0","NORAD_CAT_ID":"45692","PERIOD":"95.592","FILE":"3409979","ECCENTRICITY":"0.00018340","BSTAR":"-0.00005292500000","SITE":"AFETR","RCS_SIZE":"LARGE","MEAN_MOTION_DOT":"-0.00001070","SEMIMAJOR_AXIS":"6925.340","OBJECT_ID":"2020-035AM","GP_ID":"201711269","ARG_OF_PERICENTER":"66.0120","REV_AT_EPOCH":"10501","INCLINATION":"53.0528","MEAN_ANOMALY":"294.1060","RA_OF_ASC_NODE":"306.1075","MEAN_ELEMENT_THEORY":"SGP4","TLE_LINE2":"2 45692  53.0528 306.1075 0001834  66.0120 294.1060 15.06402848105011","OBJECT_NAME":"STARLINK-1416","COUNTRY_CODE":"US","PERIAPSIS":"545.935","CLASSIFICATION_TYPE":"U","ELEMENT_SET_NO":"999","EPOCH":"2022-04-20T20:04:52.042080","TIME_SYSTEM":"UTC","MEAN_MOTION_DDOT":"0.0000000000000","APOAPSIS":"548.475","REF_FRAME":"TEME","DECAY_DATE":null,"TLE_LINE1":"1 45692U 20035AM  22110.83671345 -.00001070  00000-0 -52925-4 0  9996","CENTER_NAME":"EARTH","LAUNCH_DATE":"2020-06-04","OBJECT_TYPE":"PAYLOAD","MEAN_MOTION":"15.06402848"},{"OBJECT_TYPE":"PAYLOAD","CENTER_NAME":"EARTH","LAUNCH_DATE":"2020-06-04","MEAN_MOTION":"15.06406761","APOAPSIS":"548.236","REF_FRAME":"TEME","DECAY_DATE":null,"TLE_LINE1":"1 45693U 20035AN  22110.52340707  .00000575  00000-0  57497-4 0  9994","ELEMENT_SET_NO":"999","EPOCH":"2022-04-20T12:33:42.370848","TIME_SYSTEM":"UTC","MEAN_MOTION_DDOT":"0.0000000000000","MEAN_ELEMENT_THEORY":"SGP4","CLASSIFICATION_TYPE":"U","COUNTRY_CODE":"US","PERIAPSIS":"546.150","TLE_LINE2":"2 45693  53.0541 307.5087 0001506  74.9464 285.1692 15.06406761104962","OBJECT_NAME":"STARLINK-1417","ARG_OF_PERICENTER":"74.9464","REV_AT_EPOCH":"10496","INCLINATION":"53.0541","MEAN_ANOMALY":"285.1692","RA_OF_ASC_NODE":"307.5087","SEMIMAJOR_AXIS":"6925.328","OBJECT_ID":"2020-035AN","SITE":"AFETR","MEAN_MOTION_DOT":"0.00000575","RCS_SIZE":"LARGE","GP_ID":"201679127","ECCENTRICITY":"0.00015060","BSTAR":"0.00005749700000","EPHEMERIS_TYPE":"0","FILE":"3409639","PERIOD":"95.592","NORAD_CAT_ID":"45693"},{"CENTER_NAME":"EARTH","LAUNCH_DATE":"2020-06-04","OBJECT_TYPE":"PAYLOAD","MEAN_MOTION":"15.06405812","APOAPSIS":"548.137","REF_FRAME":"TEME","DECAY_DATE":null,"TLE_LINE1":"1 45694U 20035AP  22110.79617051  .00000067  00000-0  23407-4 0  9993","ELEMENT_SET_NO":"999","TIME_SYSTEM":"UTC","EPOCH":"2022-04-20T19:06:29.132064","MEAN_MOTION_DDOT":"0.0000000000000","MEAN_ELEMENT_THEORY":"SGP4","TLE_LINE2":"2 45694  53.0536 306.2680 0001359  82.4695 277.6448 15.06405812105005","OBJECT_NAME":"STARLINK-1419","COUNTRY_CODE":"US","CLASSIFICATION_TYPE":"U","PERIAPSIS":"546.255","ARG_OF_PERICENTER":"82.4695","REV_AT_EPOCH":"10500","INCLINATION":"53.0536","MEAN_ANOMALY":"277.6448","RA_OF_ASC_NODE":"306.2680","MEAN_MOTION_DOT":"0.00000067","SITE":"AFETR","RCS_SIZE":"LARGE","SEMIMAJOR_AXIS":"6925.331","OBJECT_ID":"2020-035AP","GP_ID":"201712271","ECCENTRICITY":"0.00013590","BSTAR":"0.00002340700000","EPHEMERIS_TYPE":"0","NORAD_CAT_ID":"45694","FILE":"3409979","PERIOD":"95.592"},{"GP_ID":"201711019","SEMIMAJOR_AXIS":"6925.354","OBJECT_ID":"2020-035AQ","SITE":"AFETR","MEAN_MOTION_DOT":"-0.00001405","RCS_SIZE":"LARGE","MEAN_ANOMALY":"300.1712","RA_OF_ASC_NODE":"286.2910","INCLINATION":"53.0535","REV_AT_EPOCH":"10529","ARG_OF_PERICENTER":"59.9436","PERIOD":"95.592","FILE":"3409979","NORAD_CAT_ID":"45695","EPHEMERIS_TYPE":"0","BSTAR":"-0.00007544800000","ECCENTRICITY":"0.00016020","TLE_LINE1":"1 45695U 20035AQ  22110.79063825 -.00001405  00000-0 -75448-4 0  9999","DECAY_DATE":null,"REF_FRAME":"TEME","APOAPSIS":"548.328","MEAN_MOTION":"15.06398267","OBJECT_TYPE":"PAYLOAD","LAUNCH_DATE":"2020-06-04","CENTER_NAME":"EARTH","COUNTRY_CODE":"US","CLASSIFICATION_TYPE":"U","PERIAPSIS":"546.109","OBJECT_NAME":"STARLINK-1420","TLE_LINE2":"2 45695  53.0535 286.2910 0001602  59.9436 300.1712 15.06398267105293","MEAN_ELEMENT_THEORY":"SGP4","MEAN_MOTION_DDOT":"0.0000000000000","TIME_SYSTEM":"UTC","EPOCH":"2022-04-20T18:58:31.144800","ELEMENT_SET_NO":"999"},{"APOAPSIS":"548.609","REF_FRAME":"TEME","DECAY_DATE":null,"TLE_LINE1":"1 45696U 20035AR  22110.79985310  .00000318  00000-0  40270-4 0  9997","OBJECT_TYPE":"PAYLOAD","CENTER_NAME":"EARTH","LAUNCH_DATE":"2020-06-04","MEAN_MOTION":"15.06399862","MEAN_ELEMENT_THEORY":"SGP4","PERIAPSIS":"545.819","COUNTRY_CODE":"US","CLASSIFICATION_TYPE":"U","OBJECT_NAME":"STARLINK-1422","TLE_LINE2":"2 45696  53.0538 306.2548 0002014  52.5666 307.5506 15.06399862105002","ELEMENT_SET_NO":"999","TIME_SYSTEM":"UTC","EPOCH":"2022-04-20T19:11:47.307840","MEAN_MOTION_DDOT":"0.0000000000000","SEMIMAJOR_AXIS":"6925.349","OBJECT_ID":"2020-035AR","RCS_SIZE":"LARGE","SITE":"AFETR","MEAN_MOTION_DOT":"0.00000318","GP_ID":"201711770","ARG_OF_PERICENTER":"52.5666","REV_AT_EPOCH":"10500","INCLINATION":"53.0538","MEAN_ANOMALY":"307.5506","RA_OF_ASC_NODE":"306.2548","EPHEMERIS_TYPE":"0","PERIOD":"95.592","FILE":"3409979","NORAD_CAT_ID":"45696","ECCENTRICITY":"0.00020140","BSTAR":"0.00004027000000"},{"LAUNCH_DATE":"2020-06-04","CENTER_NAME":"EARTH","OBJECT_TYPE":"PAYLOAD","MEAN_MOTION":"15.06410185","DECAY_DATE":null,"APOAPSIS":"548.054","REF_FRAME":"TEME","TLE_LINE1":"1 45697U 20035AS  22110.77589887  .00002904  00000-0  21369-3 0  9995","EPOCH":"2022-04-20T18:37:17.662368","TIME_SYSTEM":"UTC","ELEMENT_SET_NO":"999","MEAN_MOTION_DDOT":"0.0000000000000","MEAN_ELEMENT_THEORY":"SGP4","TLE_LINE2":"2 45697  53.0552 286.3749 0001258  57.4028 302.7082 15.06410185105294","OBJECT_NAME":"STARLINK-1351","COUNTRY_CODE":"US","CLASSIFICATION_TYPE":"U","PERIAPSIS":"546.311","REV_AT_EPOCH":"10529","ARG_OF_PERICENTER":"57.4028","MEAN_ANOMALY":"302.7082","RA_OF_ASC_NODE":"286.3749","INCLINATION":"53.0552","MEAN_MOTION_DOT":"0.00002904","SITE":"AFETR","RCS_SIZE":"LARGE","SEMIMAJOR_AXIS":"6925.317","OBJECT_ID":"2020-035AS","GP_ID":"201712021","ECCENTRICITY":"0.00012580","BSTAR":"0.00021369000000","EPHEMERIS_TYPE":"0","NORAD_CAT_ID":"45697","FILE":"3409979","PERIOD":"95.591"},{"MEAN_MOTION_DDOT":"0.0000000000000","EPOCH":"2022-04-20T18:21:21.761280","TIME_SYSTEM":"UTC","ELEMENT_SET_NO":"999","COUNTRY_CODE":"US","CLASSIFICATION_TYPE":"U","PERIAPSIS":"546.098","TLE_LINE2":"2 45698  53.0542 286.4252 0001544  72.3117 287.8041 15.06414957105296","OBJECT_NAME":"STARLINK-1370","MEAN_ELEMENT_THEORY":"SGP4","MEAN_MOTION":"15.06414957","OBJECT_TYPE":"PAYLOAD","LAUNCH_DATE":"2020-06-04","CENTER_NAME":"EARTH","TLE_LINE1":"1 45698U 20035AT  22110.76483520  .00003556  00000-0  25739-3 0  9991","DECAY_DATE":null,"APOAPSIS":"548.237","REF_FRAME":"TEME","BSTAR":"0.00025739000000","ECCENTRICITY":"0.00015440","PERIOD":"95.591","FILE":"3409979","NORAD_CAT_ID":"45698","EPHEMERIS_TYPE":"0","MEAN_ANOMALY":"287.8041","RA_OF_ASC_NODE":"286.4252","INCLINATION":"53.0542","REV_AT_EPOCH":"10529","ARG_OF_PERICENTER":"72.3117","GP_ID":"201712772","OBJECT_ID":"2020-035AT","SEMIMAJOR_AXIS":"6925.303","SITE":"AFETR","MEAN_MOTION_DOT":"0.00003556","RCS_SIZE":"LARGE"},{"CENTER_NAME":"EARTH","LAUNCH_DATE":"2020-06-04","OBJECT_TYPE":"PAYLOAD","MEAN_MOTION":"15.06404057","APOAPSIS":"548.285","REF_FRAME":"TEME","DECAY_DATE":null,"TLE_LINE1":"1 45699U 20035AU  22110.75378083 -.00000322  00000-0 -27267-5 0  9998","ELEMENT_SET_NO":"999","EPOCH":"2022-04-20T18:05:26.663712","TIME_SYSTEM":"UTC","MEAN_MOTION_DDOT":"0.0000000000000","MEAN_ELEMENT_THEORY":"SGP4","TLE_LINE2":"2 45699  53.0555 286.4768 0001565  69.1353 290.9803 15.06404057105282","OBJECT_NAME":"STARLINK-1398","COUNTRY_CODE":"US","CLASSIFICATION_TYPE":"U","PERIAPSIS":"546.117","ARG_OF_PERICENTER":"69.1353","REV_AT_EPOCH":"10528","INCLINATION":"53.0555","RA_OF_ASC_NODE":"286.4768","MEAN_ANOMALY":"290.9803","SITE":"AFETR","RCS_SIZE":"LARGE","MEAN_MOTION_DOT":"-0.00000322","SEMIMAJOR_AXIS":"6925.336","OBJECT_ID":"2020-035AU","GP_ID":"201711520","ECCENTRICITY":"0.00015650","BSTAR":"-0.00000272670000","EPHEMERIS_TYPE":"0","NORAD_CAT_ID":"45699","PERIOD":"95.592","FILE":"3409979"},{"TLE_LINE1":"1 45700U 20035AV  22110.75009102 -.00000345  00000-0 -42562-5 0  9994","DECAY_DATE":null,"REF_FRAME":"TEME","APOAPSIS":"548.251","MEAN_MOTION":"15.06400088","LAUNCH_DATE":"2020-06-04","CENTER_NAME":"EARTH","OBJECT_TYPE":"PAYLOAD","TLE_LINE2":"2 45700  53.0530 286.4848 0001498  87.5989 272.5172 15.06400088105286","OBJECT_NAME":"STARLINK-1400","PERIAPSIS":"546.176","COUNTRY_CODE":"US","CLASSIFICATION_TYPE":"U","MEAN_ELEMENT_THEORY":"SGP4","MEAN_MOTION_DDOT":"0.0000000000000","EPOCH":"2022-04-20T18:00:07.864128","TIME_SYSTEM":"UTC","ELEMENT_SET_NO":"999","GP_ID":"201711270","RCS_SIZE":"LARGE","SITE":"AFETR","MEAN_MOTION_DOT":"-0.00000345","OBJECT_ID":"2020-035AV","SEMIMAJOR_AXIS":"6925.348","MEAN_ANOMALY":"272.5172","RA_OF_ASC_NODE":"286.4848","INCLINATION":"53.0530","REV_AT_EPOCH":"10528","ARG_OF_PERICENTER":"87.5989","NORAD_CAT_ID":"45700","PERIOD":"95.592","FILE":"3409979","EPHEMERIS_TYPE":"0","BSTAR":"-0.00000425620000","ECCENTRICITY":"0.00014980"},{"EPHEMERIS_TYPE":"0","NORAD_CAT_ID":"45701","PERIOD":"95.592","FILE":"3409979","ECCENTRICITY":"0.00018510","BSTAR":"-0.00009752800000","SITE":"AFETR","MEAN_MOTION_DOT":"-0.00001734","RCS_SIZE":"LARGE","SEMIMAJOR_AXIS":"6925.335","OBJECT_ID":"2020-035AW","GP_ID":"201712522","ARG_OF_PERICENTER":"57.1910","REV_AT_EPOCH":"10528","INCLINATION":"53.0552","MEAN_ANOMALY":"302.9257","RA_OF_ASC_NODE":"286.3452","MEAN_ELEMENT_THEORY":"SGP4","OBJECT_NAME":"STARLINK-1403","TLE_LINE2":"2 45701  53.0552 286.3452 0001851  57.1910 302.9257 15.06404465105286","COUNTRY_CODE":"US","CLASSIFICATION_TYPE":"U","PERIAPSIS":"545.918","ELEMENT_SET_NO":"999","EPOCH":"2022-04-20T18:42:35.617824","TIME_SYSTEM":"UTC","MEAN_MOTION_DDOT":"0.0000000000000","REF_FRAME":"TEME","APOAPSIS":"548.482","DECAY_DATE":null,"TLE_LINE1":"1 45701U 20035AW  22110.77957891 -.00001734  00000-0 -97528-4 0  9998","CENTER_NAME":"EARTH","LAUNCH_DATE":"2020-06-04","OBJECT_TYPE":"PAYLOAD","MEAN_MOTION":"15.06404465"}];
